{"type": "FeatureCollection", "features": [ {"type": "Feature", "properties": {"norad_id": 33492, "name": "GOSAT (IBUKI)", "group": "resource", "lat": 67.36504531278474, "lon": 83.97226781492901, "alt_km": 661.7776663657105, "timestamp": "2025-12-21T09:37:22.305081+00:00", "meta": {"OBJECT_NAME": "GOSAT (IBUKI)", "OBJECT_ID": "2009-002A", "EPOCH": "2025-12-21T04:24:05.321088", "MEAN_MOTION": 14.67540045, "ECCENTRICITY": 9.89e-05, "INCLINATION": 98.0772, "RA_OF_ASC_NODE": 103.6694, "ARG_OF_PERICENTER": 101.732, "MEAN_ANOMALY": 258.3996, "EPHEMERIS_TYPE": 0, "CLASSIFICATION_TYPE": "U", "NORAD_CAT_ID": 33492, "ELEMENT_SET_NO": 999, "REV_AT_EPOCH": 90535, "BSTAR": 0.00010945, "MEAN_MOTION_DOT": 5.73e-06, "MEAN_MOTION_DDOT": 0}, "tle": {"line1": "1 33492U 09002A   25355.18339492  .00000573  00000+0  10945-3 0  9997", "line2": "2 33492  98.0772 103.6694 0000989 101.7320 258.3996 14.67540045905355"}}, "geometry": {"type": "Point", "coordinates": [83.97226781492901, 67.36504531278474]}}, {"type": "Feature", "properties": {"norad_id": 35681, "name": "DEIMOS-1", "group": "resource", "lat": 16.995919332578396, "lon": 153.22613192847797, "alt_km": 644.6265531666404, "timestamp": "2025-12-21T09:37:22.305092+00:00", "meta": {"OBJECT_NAME": "DEIMOS-1", "OBJECT_ID": "2009-041A", "EPOCH": "2025-12-21T04:39:39.172896", "MEAN_MOTION": 14.74963113, "ECCENTRICITY": 0.0002586, "INCLINATION": 97.7146, "RA_OF_ASC_NODE": 155.4037, "ARG_OF_PERICENTER": 66.2933, "MEAN_ANOMALY": 293.8548, "EPHEMERIS_TYPE": 0, "CLASSIFICATION_TYPE": "U", "NORAD_CAT_ID": 35681, "ELEMENT_SET_NO": 999, "REV_AT_EPOCH": 88064, "BSTAR": 3.3542e-05, "MEAN_MOTION_DOT": 1.78e-06, "MEAN_MOTION_DDOT": 0}, "tle": {"line1": "1 35681U 09041A   25355.19420339  .00000178  00000+0  33542-4 0  9994", "line2": "2 35681  97.7146 155.4037 0002586  66.2933 293.8548 14.74963113880648"}}, "geometry": {"type": "Point", "coordinates": [153.22613192847797, 16.995919332578396]}}, {"type": "Feature", "properties": {"norad_id": 35682, "name": "DUBAISAT-1", "group": "resource", "lat": -57.479606374990354, "lon": 138.66333575490142, "alt_km": 647.2648859967767, "timestamp": "2025-12-21T09:37:22.305103+00:00", "meta": {"OBJECT_NAME": "DUBAISAT-1", "OBJECT_ID": "2009-041B", "EPOCH": "2025-12-20T20:51:31.286304", "MEAN_MOTION": 14.74624249, "ECCENTRICITY": 0.0009246, "INCLINATION": 97.9798, "RA_OF_ASC_NODE": 125.4295, "ARG_OF_PERICENTER": 285.257, "MEAN_ANOMALY": 74.7616, "EPHEMERIS_TYPE": 0, "CLASSIFICATION_TYPE": "U", "NORAD_CAT_ID": 35682, "ELEMENT_SET_NO": 999, "REV_AT_EPOCH": 87881, "BSTAR": 0.0001417, "MEAN_MOTION_DOT": 8.95e-06, "MEAN_MOTION_DDOT": 0}, "tle": {"line1": "1 35682U 09041B   25354.86911211  .00000895  00000+0  14170-3 0  9993", "line2": "2 35682  97.9798 125.4295 0009246 285.2570  74.7616 14.74624249878819"}}, "geometry": {"type": "Point", "coordinates": [138.66333575490142, -57.479606374990354]}}, {"type": "Feature", "properties": {"norad_id": 35931, "name": "OCEANSAT-2", "group": "resource", "lat": -55.12529863120468, "lon": 7.095345765223594, "alt_km": 899.7160355330534, "timestamp": "2025-12-21T09:37:22.305113+00:00", "meta": {"OBJECT_NAME": "OCEANSAT-2", "OBJECT_ID": "2009-051A", "EPOCH": "2025-12-21T04:44:32.189856", "MEAN_MOTION": 13.99623009, "ECCENTRICITY": 0.0015999, "INCLINATION": 98.2217, "RA_OF_ASC_NODE": 354.94, "ARG_OF_PERICENTER": 22.8847, "MEAN_ANOMALY": 337.3029, "EPHEMERIS_TYPE": 0, "CLASSIFICATION_TYPE": "U", "NORAD_CAT_ID": 35931, "ELEMENT_SET_NO": 999, "REV_AT_EPOCH": 85443, "BSTAR": -5.4518e-05, "MEAN_MOTION_DOT": -1.17e-06, "MEAN_MOTION_DDOT": 0}, "tle": {"line1": "1 35931U 09051A   25355.19759479 -.00000117  00000+0 -54518-4 0  9994", "line2": "2 35931  98.2217 354.9400 0015999  22.8847 337.3029 13.99623009854434"}}, "geometry": {"type": "Point", "coordinates": [7.095345765223594, -55.12529863120468]}}, {"type": "Feature", "properties": {"norad_id": 35946, "name": "WORLDVIEW-2 (WV-2)", "group": "resource", "lat": 7.587460123793424, "lon": -112.49500390926559, "alt_km": 769.818615731896, "timestamp": "2025-12-21T09:37:22.305124+00:00", "meta": {"OBJECT_NAME": "WORLDVIEW-2 (WV-2)", "OBJECT_ID": "2009-055A", "EPOCH": "2025-12-21T03:48:50.536800", "MEAN_MOTION": 14.37727343, "ECCENTRICITY": 0.0004891, "INCLINATION": 98.4778, "RA_OF_ASC_NODE": 66.1279, "ARG_OF_PERICENTER": 50.0355, "MEAN_ANOMALY": 310.1261, "EPHEMERIS_TYPE": 0, "CLASSIFICATION_TYPE": "U", "NORAD_CAT_ID": 35946, "ELEMENT_SET_NO": 999, "REV_AT_EPOCH": 85006, "BSTAR": 5.2702e-05, "MEAN_MOTION_DOT": 1.15e-06, "MEAN_MOTION_DDOT": 0}, "tle": {"line1": "1 35946U 09055A   25355.15891825  .00000115  00000+0  52702-4 0  9991", "line2": "2 35946  98.4778  66.1279 0004891  50.0355 310.1261 14.37727343850067"}}, "geometry": {"type": "Point", "coordinates": [-112.49500390926559, 7.587460123793424]}}, {"type": "Feature", "properties": {"norad_id": 36036, "name": "SMOS", "group": "resource", "lat": -81.54309680918766, "lon": -92.94124279426838, "alt_km": 767.4331802165252, "timestamp": "2025-12-21T09:37:22.305134+00:00", "meta": {"OBJECT_NAME": "SMOS", "OBJECT_ID": "2009-059A", "EPOCH": "2025-12-21T03:21:59.488704", "MEAN_MOTION": 14.39748108, "ECCENTRICITY": 0.0001078, "INCLINATION": 98.438, "RA_OF_ASC_NODE": 180.0643, "ARG_OF_PERICENTER": 83.8311, "MEAN_ANOMALY": 276.3, "EPHEMERIS_TYPE": 0, "CLASSIFICATION_TYPE": "U", "NORAD_CAT_ID": 36036, "ELEMENT_SET_NO": 999, "REV_AT_EPOCH": 84783, "BSTAR": 0.00010146, "MEAN_MOTION_DOT": 2.74e-06, "MEAN_MOTION_DDOT": 0}, "tle": {"line1": "1 36036U 09059A   25355.14027186  .00000274  00000+0  10146-3 0  9997", "line2": "2 36036  98.4380 180.0643 0001078  83.8311 276.3000 14.39748108847837"}}, "geometry": {"type": "Point", "coordinates": [-92.94124279426838, -81.54309680918766]}}, {"type": "Feature", "properties": {"norad_id": 36110, "name": "YAOGAN-7", "group": "resource", "lat": -17.87583679513676, "lon": 54.51715009998241, "alt_km": 631.7829507334236, "timestamp": "2025-12-21T09:37:22.305144+00:00", "meta": {"OBJECT_NAME": "YAOGAN-7", "OBJECT_ID": "2009-069A", "EPOCH": "2025-12-21T02:13:38.734752", "MEAN_MOTION": 14.77743386, "ECCENTRICITY": 0.0023355, "INCLINATION": 98.0296, "RA_OF_ASC_NODE": 236.8197, "ARG_OF_PERICENTER": 252.7941, "MEAN_ANOMALY": 107.0712, "EPHEMERIS_TYPE": 0, "CLASSIFICATION_TYPE": "U", "NORAD_CAT_ID": 36110, "ELEMENT_SET_NO": 999, "REV_AT_EPOCH": 86332, "BSTAR": 6.8228e-05, "MEAN_MOTION_DOT": 4.38e-06, "MEAN_MOTION_DDOT": 0}, "tle": {"line1": "1 36110U 09069A   25355.09280943  .00000438  00000+0  68228-4 0  9994", "line2": "2 36110  98.0296 236.8197 0023355 252.7941 107.0712 14.77743386863321"}}, "geometry": {"type": "Point", "coordinates": [54.51715009998241, -17.87583679513676]}}, {"type": "Feature", "properties": {"norad_id": 36605, "name": "TANDEM-X", "group": "resource", "lat": -66.14104550709989, "lon": 17.850683180812098, "alt_km": 516.6349115031671, "timestamp": "2025-12-21T09:37:22.305158+00:00", "meta": {"OBJECT_NAME": "TANDEM-X", "OBJECT_ID": "2010-030A", "EPOCH": "2025-12-20T11:47:12.909696", "MEAN_MOTION": 15.19154059, "ECCENTRICITY": 0.00018, "INCLINATION": 97.4444, "RA_OF_ASC_NODE": 359.7582, "ARG_OF_PERICENTER": 78.1402, "MEAN_ANOMALY": 282.0034, "EPHEMERIS_TYPE": 0, "CLASSIFICATION_TYPE": "U", "NORAD_CAT_ID": 36605, "ELEMENT_SET_NO": 999, "REV_AT_EPOCH": 85951, "BSTAR": 3.1882e-05, "MEAN_MOTION_DOT": 6.03e-06, "MEAN_MOTION_DDOT": 0}, "tle": {"line1": "1 36605U 10030A   25354.49112164  .00000603  00000+0  31882-4 0  9995", "line2": "2 36605  97.4444 359.7582 0001800  78.1402 282.0034 15.19154059859511"}}, "geometry": {"type": "Point", "coordinates": [17.850683180812098, -66.14104550709989]}}, {"type": "Feature", "properties": {"norad_id": 36795, "name": "CARTOSAT-2B", "group": "resource", "lat": 23.24299419460969, "lon": -132.48166231922633, "alt_km": 635.2541985984317, "timestamp": "2025-12-21T09:37:22.305173+00:00", "meta": {"OBJECT_NAME": "CARTOSAT-2B", "OBJECT_ID": "2010-035A", "EPOCH": "2025-12-21T04:02:48.966720", "MEAN_MOTION": 14.7873596, "ECCENTRICITY": 0.001276, "INCLINATION": 97.7845, "RA_OF_ASC_NODE": 43.9253, "ARG_OF_PERICENTER": 51.8425, "MEAN_ANOMALY": 308.3934, "EPHEMERIS_TYPE": 0, "CLASSIFICATION_TYPE": "U", "NORAD_CAT_ID": 36795, "ELEMENT_SET_NO": 999, "REV_AT_EPOCH": 83354, "BSTAR": 9.4237e-05, "MEAN_MOTION_DOT": 6.42e-06, "MEAN_MOTION_DDOT": 0}, "tle": {"line1": "1 36795U 10035A   25355.16862230  .00000642  00000+0  94237-4 0  9997", "line2": "2 36795  97.7845  43.9253 0012760  51.8425 308.3934 14.78735960833542"}}, "geometry": {"type": "Point", "coordinates": [-132.48166231922633, 23.24299419460969]}}, {"type": "Feature", "properties": {"norad_id": 36834, "name": "YAOGAN-10", "group": "resource", "lat": 59.04207825847553, "lon": 1.7495406535113633, "alt_km": 608.1046783746897, "timestamp": "2025-12-21T09:37:22.305184+00:00", "meta": {"OBJECT_NAME": "YAOGAN-10", "OBJECT_ID": "2010-038A", "EPOCH": "2025-12-21T04:53:45.383136", "MEAN_MOTION": 14.84635169, "ECCENTRICITY": 0.000139, "INCLINATION": 97.9132, "RA_OF_ASC_NODE": 14.9613, "ARG_OF_PERICENTER": 78.5752, "MEAN_ANOMALY": 9.4392, "EPHEMERIS_TYPE": 0, "CLASSIFICATION_TYPE": "U", "NORAD_CAT_ID": 36834, "ELEMENT_SET_NO": 999, "REV_AT_EPOCH": 83079, "BSTAR": 0.00010133, "MEAN_MOTION_DOT": 8.03e-06, "MEAN_MOTION_DDOT": 0}, "tle": {"line1": "1 36834U 10038A   25355.20399749  .00000803  00000+0  10133-3 0  9990", "line2": "2 36834  97.9132  14.9613 0001390  78.5752   9.4392 14.84635169830799"}}, "geometry": {"type": "Point", "coordinates": [1.7495406535113633, 59.04207825847553]}}]}